{
  "links" : {
    "next" : "https://api.nasa.gov/neo/rest/v1/feed?start_date=2002-08-09&end_date=2002-08-09&detailed=true&api_key=t0TVs3DtDT2H8Oy2Zy8m2eVrNsAVKAexjcZXUckd",
    "prev" : "https://api.nasa.gov/neo/rest/v1/feed?start_date=2002-08-07&end_date=2002-08-07&detailed=true&api_key=t0TVs3DtDT2H8Oy2Zy8m2eVrNsAVKAexjcZXUckd",
    "self" : "https://api.nasa.gov/neo/rest/v1/feed?start_date=2002-08-08&end_date=2002-08-08&detailed=true&api_key=t0TVs3DtDT2H8Oy2Zy8m2eVrNsAVKAexjcZXUckd"
  },
  "element_count" : 3,
  "near_earth_objects" : {
    "2002-08-08" : [ {
      "links" : {
        "self" : "https://api.nasa.gov/neo/rest/v1/neo/2450203?api_key=t0TVs3DtDT2H8Oy2Zy8m2eVrNsAVKAexjcZXUckd"
      },
      "neo_reference_id" : "2450203",
      "name" : "450203 (2002 NA31)",
      "nasa_jpl_url" : "http://ssd.jpl.nasa.gov/sbdb.cgi?sstr=2450203",
      "absolute_magnitude_h" : 20.0,
      "estimated_diameter" : {
        "kilometers" : {
          "estimated_diameter_min" : 0.2658,
          "estimated_diameter_max" : 0.5943468684
        },
        "meters" : {
          "estimated_diameter_min" : 265.8,
          "estimated_diameter_max" : 594.3468684194
        },
        "miles" : {
          "estimated_diameter_min" : 0.1651604118,
          "estimated_diameter_max" : 0.369309908
        },
        "feet" : {
          "estimated_diameter_min" : 872.047272,
          "estimated_diameter_max" : 1949.9569797852
        }
      },
      "is_potentially_hazardous_asteroid" : false,
      "close_approach_data" : [ {
        "close_approach_date" : "2002-08-08",
        "epoch_date_close_approach" : 1028790000000,
        "relative_velocity" : {
          "kilometers_per_second" : "10.6548838081",
          "kilometers_per_hour" : "38357.5817091424",
          "miles_per_hour" : "23833.9095903279"
        },
        "miss_distance" : {
          "astronomical" : "0.2174073927",
          "lunar" : "84.571472168",
          "kilometers" : "32523682",
          "miles" : "20209280"
        },
        "orbiting_body" : "Earth"
      } ],
      "orbital_data" : {
        "orbit_id" : "33",
        "orbit_determination_date" : "2017-04-06 09:20:13",
        "orbit_uncertainty" : "0",
        "minimum_orbit_intersection" : ".217816",
        "jupiter_tisserand_invariant" : "4.142",
        "epoch_osculation" : "2458000.5",
        "eccentricity" : ".2885637928426658",
        "semi_major_axis" : "1.665960279983693",
        "inclination" : "19.97141594913261",
        "ascending_node_longitude" : "125.5169404227565",
        "orbital_period" : "785.4081271788546",
        "perihelion_distance" : "1.185224462866369",
        "perihelion_argument" : "219.9282306855033",
        "aphelion_distance" : "2.146696097101017",
        "perihelion_time" : "2458027.293339705378",
        "mean_anomaly" : "347.7189935268652",
        "mean_motion" : ".4583604212157842",
        "equinox" : "J2000"
      }
    }, {
      "links" : {
        "self" : "https://api.nasa.gov/neo/rest/v1/neo/3703247?api_key=t0TVs3DtDT2H8Oy2Zy8m2eVrNsAVKAexjcZXUckd"
      },
      "neo_reference_id" : "3703247",
      "name" : "(2014 YD42)",
      "nasa_jpl_url" : "http://ssd.jpl.nasa.gov/sbdb.cgi?sstr=3703247",
      "absolute_magnitude_h" : 22.2,
      "estimated_diameter" : {
        "kilometers" : {
          "estimated_diameter_min" : 0.096506147,
          "estimated_diameter_max" : 0.2157943048
        },
        "meters" : {
          "estimated_diameter_min" : 96.5061469579,
          "estimated_diameter_max" : 215.7943048444
        },
        "miles" : {
          "estimated_diameter_min" : 0.059966121,
          "estimated_diameter_max" : 0.134088323
        },
        "feet" : {
          "estimated_diameter_min" : 316.6212271853,
          "estimated_diameter_max" : 707.9865871058
        }
      },
      "is_potentially_hazardous_asteroid" : false,
      "close_approach_data" : [ {
        "close_approach_date" : "2002-08-08",
        "epoch_date_close_approach" : 1028790000000,
        "relative_velocity" : {
          "kilometers_per_second" : "23.7227909087",
          "kilometers_per_hour" : "85402.0472711504",
          "miles_per_hour" : "53065.5109835657"
        },
        "miss_distance" : {
          "astronomical" : "0.4189978556",
          "lunar" : "162.9901580811",
          "kilometers" : "62681188",
          "miles" : "38948284"
        },
        "orbiting_body" : "Earth"
      } ],
      "orbital_data" : {
        "orbit_id" : "16",
        "orbit_determination_date" : "2017-04-06 08:36:34",
        "orbit_uncertainty" : "5",
        "minimum_orbit_intersection" : ".0802745",
        "jupiter_tisserand_invariant" : "3.511",
        "epoch_osculation" : "2458000.5",
        "eccentricity" : ".5730633575624535",
        "semi_major_axis" : "2.093481555614085",
        "inclination" : "9.291635436389853",
        "ascending_node_longitude" : "108.0153259089705",
        "orbital_period" : "1106.374443429985",
        "perihelion_distance" : ".8937839863588093",
        "perihelion_argument" : "285.0289662059953",
        "aphelion_distance" : "3.293179124869361",
        "perihelion_time" : "2458072.901749336701",
        "mean_anomaly" : "336.4414028939365",
        "mean_motion" : ".3253871256135736",
        "equinox" : "J2000"
      }
    }, {
      "links" : {
        "self" : "https://api.nasa.gov/neo/rest/v1/neo/3725659?api_key=t0TVs3DtDT2H8Oy2Zy8m2eVrNsAVKAexjcZXUckd"
      },
      "neo_reference_id" : "3725659",
      "name" : "(2015 PA57)",
      "nasa_jpl_url" : "http://ssd.jpl.nasa.gov/sbdb.cgi?sstr=3725659",
      "absolute_magnitude_h" : 24.5,
      "estimated_diameter" : {
        "kilometers" : {
          "estimated_diameter_min" : 0.0334622374,
          "estimated_diameter_max" : 0.0748238376
        },
        "meters" : {
          "estimated_diameter_min" : 33.4622374455,
          "estimated_diameter_max" : 74.8238376074
        },
        "miles" : {
          "estimated_diameter_min" : 0.0207924639,
          "estimated_diameter_max" : 0.0464933628
        },
        "feet" : {
          "estimated_diameter_min" : 109.7842471007,
          "estimated_diameter_max" : 245.4850393757
        }
      },
      "is_potentially_hazardous_asteroid" : false,
      "close_approach_data" : [ {
        "close_approach_date" : "2002-08-08",
        "epoch_date_close_approach" : 1028790000000,
        "relative_velocity" : {
          "kilometers_per_second" : "13.2546678023",
          "kilometers_per_hour" : "47716.804088235",
          "miles_per_hour" : "29649.3664069369"
        },
        "miss_distance" : {
          "astronomical" : "0.0871951321",
          "lunar" : "33.9189071655",
          "kilometers" : "13044207",
          "miles" : "8105294.5"
        },
        "orbiting_body" : "Earth"
      } ],
      "orbital_data" : {
        "orbit_id" : "15",
        "orbit_determination_date" : "2017-04-06 08:32:31",
        "orbit_uncertainty" : "6",
        "minimum_orbit_intersection" : ".0190277",
        "jupiter_tisserand_invariant" : "5.267",
        "epoch_osculation" : "2458000.5",
        "eccentricity" : ".358739601706946",
        "semi_major_axis" : "1.189279403215038",
        "inclination" : "2.05798822746254",
        "ascending_node_longitude" : "279.5596787270741",
        "orbital_period" : "473.7227842851855",
        "perihelion_distance" : ".7626377837874007",
        "perihelion_argument" : "305.0631195485855",
        "aphelion_distance" : "1.615921022642675",
        "perihelion_time" : "2458121.716598659654",
        "mean_anomaly" : "267.8828864367965",
        "mean_motion" : ".7599381155863439",
        "equinox" : "J2000"
      }
    } ]
  }
}